NORAD_CAT_ID,OBJECT_NAME,OBJECT_TYPE,EPOCH,MEAN_MOTION,ECCENTRICITY,INCLINATION,RA_OF_ASC_NODE,ARG_OF_PERICENTER,MEAN_ANOMALY,BSTAR,MEAN_MOTION_DOT,MEAN_MOTION_DDOT,TLE_LINE0,TLE_LINE1,TLE_LINE2,SEMIMAJOR_AXIS,PERIOD,APOGEE,PERIGEE,DECAYED
54178.0,STARLINK-5164,PAYLOAD,2024-01-10 01:16:54,15.08846535,0.0001412,53.2172,308.6131,98.2136,261.9017,7.6782e-05,9.34e-06,0.0,0 STARLINK-5164,1 54178U 22141X   24010.05340847  .00000934  00000-0  76782-4 0  9993,2 54178  53.2172 308.6131 0001412  98.2136 261.9017 15.08846535 66650,6917.86,95.437,540.702,538.749,0.0
54178.0,STARLINK-5164,PAYLOAD,2024-01-10 18:46:09,15.08836649,0.0001208,53.2163,305.35,84.3019,275.8111,0.00010705,1.416e-05,0.0,0 STARLINK-5164,1 54178U 22141X   24010.78205424  .00001416  00000-0  10705-3 0  9992,2 54178  53.2163 305.3500 0001208  84.3019 275.8111 15.08836649 66769,6917.891,95.438,540.591,538.92,0.0
54178.0,STARLINK-5164,PAYLOAD,2024-01-11 05:53:51,15.08843385,0.0001365,53.2176,303.2616,89.9317,270.1831,5.9957e-05,6.67e-06,0.0,0 STARLINK-5164,1 54178U 22141X   24011.24573305  .00000667  00000-0  59957-4 0  9990,2 54178  53.2176 303.2616 0001365  89.9317 270.1831 15.08843385 66834,6917.87,95.437,540.679,538.791,0.0
54178.0,STARLINK-5164,PAYLOAD,2024-01-12 04:09:14,15.08855134,0.00015,53.2177,299.0968,92.8517,267.2647,4.5547e-05,4.37e-06,0.0,0 STARLINK-5164,1 54178U 22141X   24012.17308581  .00000437  00000-0  45547-4 0  9990,2 54178  53.2177 299.0968 0001500  92.8517 267.2647 15.08855134 66975,6917.834,95.437,540.737,538.661,0.0
54178.0,STARLINK-5164,PAYLOAD,2024-01-12 23:13:53,15.0883638,0.0001772,53.2174,295.5268,139.078,221.0345,-2.8663e-05,-7.44e-06,0.0,0 STARLINK-5164,1 54178U 22141X   24012.96797866 -.00000744  00000-0 -28663-4 0  9998,2 54178  53.2174 295.5268 0001772 139.0780 221.0345 15.08836380 67092,6917.891,95.438,540.982,538.531,0.0
54178.0,STARLINK-5164,PAYLOAD,2024-01-13 04:00:02,15.08840853,0.0001384,53.2182,294.6373,82.4876,277.6274,3.5167e-05,2.72e-06,0.0,0 STARLINK-5164,1 54178U 22141X   24013.16669877  .00000272  00000-0  35167-4 0  9992,2 54178  53.2182 294.6373 0001384  82.4876 277.6274 15.08840853 67126,6917.878,95.438,540.7,538.785,0.0
54178.0,STARLINK-5164,PAYLOAD,2024-01-14 03:50:49,15.08852422,0.000145,53.2187,290.1747,96.5544,263.5613,4.1325e-05,3.7e-06,0.0,0 STARLINK-5164,1 54178U 22141X   24014.16029278  .00000370  00000-0  41325-4 0  9990,2 54178  53.2187 290.1747 0001450  96.5544 263.5613 15.08852422 67271,6917.842,95.437,540.711,538.704,0.0
54178.0,STARLINK-5164,PAYLOAD,2024-01-14 22:55:27,15.08845964,0.0001587,53.2196,286.6046,86.1487,273.9687,7.8604e-05,9.63e-06,0.0,0 STARLINK-5164,1 54178U 22141X   24014.95517803  .00000963  00000-0  78604-4 0  9991,2 54178  53.2196 286.6046 0001587  86.1487 273.9687 15.08845964 67397,6917.862,95.437,540.825,538.629,0.0
54178.0,STARLINK-5164,PAYLOAD,2024-01-15 00:30:50,15.08843253,0.0001581,53.2189,286.3135,69.3786,290.7375,0.00018882,2.719e-05,0.0,0 STARLINK-5164,1 54178U 22141X   24015.02141665  .00002719  00000-0  18882-3 0  9991,2 54178  53.2189 286.3135 0001581  69.3786 290.7375 15.08843253 67406,6917.87,95.437,540.829,538.642,0.0
54178.0,STARLINK-5164,PAYLOAD,2024-01-15 21:10:51,15.08843095,0.0001297,53.2179,282.4445,85.2912,274.8228,-1.6812e-05,-5.55e-06,0.0,0 STARLINK-5164,1 54178U 22141X   24015.88254166 -.00000555  00000-0 -16812-4 0  9996,2 54178  53.2179 282.4445 0001297  85.2912 274.8228 15.08843095 67536,6917.871,95.437,540.633,538.839,0.0
54178.0,STARLINK-5164,PAYLOAD,2024-01-16 03:32:23,15.08844404,0.0001611,53.2173,281.255,112.284,247.8323,-5.6238e-06,-3.78e-06,0.0,0 STARLINK-5164,1 54178U 22141X   24016.14749851 -.00000378  00000-0 -56238-5 0  9996,2 54178  53.2173 281.2550 0001611 112.2840 247.8323 15.08844404 67570,6917.867,95.437,540.846,538.617,0.0
54178.0,STARLINK-5164,PAYLOAD,2024-01-16 22:37:01,15.08847326,0.0001666,53.2167,277.6867,116.9914,243.1249,-6.7693e-05,-1.365e-05,0.0,0 STARLINK-5164,1 54178U 22141X   24016.94237858 -.00001365  00000-0 -67693-4 0  9996,2 54178  53.2167 277.6867 0001666 116.9914 243.1249 15.08847326 67691,6917.858,95.437,540.876,538.57,0.0
54178.0,STARLINK-5164,PAYLOAD,2024-01-17 00:12:24,15.08848305,0.0001727,53.2169,277.3893,119.3175,240.799,-5.3791e-05,-1.144e-05,0.0,0 STARLINK-5164,1 54178U 22141X   24017.00861710 -.00001144  00000-0 -53791-4 0  9993,2 54178  53.2169 277.3893 0001727 119.3175 240.7990 15.08848305 67709,6917.855,95.437,540.915,538.525,0.0
54178.0,STARLINK-5164,PAYLOAD,2024-01-17 22:27:49,15.0883643,0.0001697,53.2171,273.23,115.4734,244.6434,1.3275e-05,-7.7e-07,0.0,0 STARLINK-5164,1 54178U 22141X   24017.93598461 -.00000077  00000-0  13275-4 0  9991,2 54178  53.2171 273.2300 0001697 115.4734 244.6434 15.08836430 67841,6917.891,95.438,540.93,538.582,0.0
54178.0,STARLINK-5164,PAYLOAD,2024-01-18 01:38:35,15.08840478,0.0001736,53.2177,272.6359,114.906,245.2113,5.4517e-05,5.8e-06,0.0,0 STARLINK-5164,1 54178U 22141X   24018.06846122  .00000580  00000-0  54517-4 0  9998,2 54178  53.2177 272.6359 0001736 114.9060 245.2113 15.08840478 67864,6917.879,95.438,540.945,538.543,0.0
54178.0,STARLINK-5164,PAYLOAD,2024-01-18 22:18:36,15.08835289,0.0001204,53.2182,268.7722,65.7682,294.3436,7.3308e-05,8.79e-06,0.0,0 STARLINK-5164,1 54178U 22141X   24018.92958792  .00000879  00000-0  73308-4 0  9990,2 54178  53.2182 268.7722 0001204  65.7682 294.3436 15.08835289 67994,6917.895,95.438,540.593,538.927,0.0
54178.0,STARLINK-5164,PAYLOAD,2024-01-19 01:29:22,15.08843733,0.0001727,53.2187,268.1745,102.2516,257.8669,6.0133e-05,6.69e-06,0.0,0 STARLINK-5164,1 54178U 22141X   24019.06206189  .00000669  00000-0  60133-4 0  9991,2 54178  53.2187 268.1745 0001727 102.2516 257.8669 15.08843733 68010,6917.869,95.437,540.929,538.539,0.0
54178.0,STARLINK-5164,PAYLOAD,2024-01-19 22:09:23,15.08839142,0.0001868,53.2183,264.3062,129.8424,230.2733,1.2758e-05,-8.5e-07,0.0,0 STARLINK-5164,1 54178U 22141X   24019.92318696 -.00000085  00000-0  12758-4 0  9996,2 54178  53.2183 264.3062 0001868 129.8424 230.2733 15.08839142 68145,6917.883,95.438,541.04,538.456,0.0
54178.0,STARLINK-5164,PAYLOAD,2024-01-20 01:20:09,15.08839752,0.0001691,53.218,263.7125,79.3955,280.7227,4.5905e-05,4.43e-06,0.0,0 STARLINK-5164,1 54178U 22141X   24020.05566814  .00000443  00000-0  45905-4 0  9996,2 54178  53.2180 263.7125 0001691  79.3955 280.7227 15.08839752 68164,6917.881,95.438,540.916,538.576,0.0
54178.0,STARLINK-5164,PAYLOAD,2024-01-20 22:00:11,15.08836938,0.0001503,53.2164,259.8468,85.9221,274.1943,-3.1386e-05,-7.87e-06,0.0,0 STARLINK-5164,1 54178U 22141X   24020.91679461 -.00000787  00000-0 -31386-4 0  9995,2 54178  53.2164 259.8468 0001503  85.9221 274.1943 15.08836938 68292,6917.89,95.438,540.795,538.715,0.0
54178.0,STARLINK-5164,PAYLOAD,2024-01-20 23:35:34,15.08839525,0.00014,53.2167,259.5501,84.247,275.8681,-2.4432e-05,-6.77e-06,0.0,0 STARLINK-5164,1 54178U 22141X   24020.98303301 -.00000677  00000-0 -24432-4 0  9991,2 54178  53.2167 259.5501 0001400  84.2470 275.8681 15.08839525 68308,6917.882,95.438,540.715,538.778,0.0
54178.0,STARLINK-5164,PAYLOAD,2024-01-21 21:50:57,15.08848419,0.0001461,53.2162,255.3852,104.1887,255.9268,7.2249e-05,8.62e-06,0.0,0 STARLINK-5164,1 54178U 22141X   24021.91038271  .00000862  00000-0  72249-4 0  9999,2 54178  53.2162 255.3852 0001461 104.1887 255.9268 15.08848419 68444,6917.855,95.437,540.73,538.709,0.0
54178.0,STARLINK-5164,PAYLOAD,2024-01-22 01:01:43,15.08842469,0.0001344,53.2163,254.789,92.1934,267.9212,0.00020467,2.971e-05,0.0,0 STARLINK-5164,1 54178U 22141X   24022.04286195  .00002971  00000-0  20467-3 0  9991,2 54178  53.2163 254.7890 0001344  92.1934 267.9212 15.08842469 68462,6917.873,95.437,540.668,538.808,0.0
54178.0,STARLINK-5164,PAYLOAD,2024-01-22 20:06:21,15.08841445,0.0001435,53.217,251.2131,110.883,249.2315,9.7772e-06,-1.32e-06,0.0,0 STARLINK-5164,1 54178U 22141X   24022.83774845 -.00000132  00000-0  97772-5 0  9995,2 54178  53.2170 251.2131 0001435 110.8830 249.2315 15.08841445 68587,6917.876,95.437,540.734,538.748,0.0
54178.0,STARLINK-5164,PAYLOAD,2024-01-22 21:41:44,15.08841235,0.0001386,53.217,250.9161,108.0251,252.0892,5.1266e-06,-2.06e-06,0.0,0 STARLINK-5164,1 54178U 22141X   24022.90398833 -.00000206  00000-0  51266-5 0  9992,2 54178  53.2170 250.9161 0001386 108.0251 252.0892 15.08841235 68597,6917.877,95.437,540.7,538.783,0.0
54178.0,STARLINK-5164,PAYLOAD,2024-01-23 19:57:07,15.08852083,0.0001217,53.2159,246.7522,110.0577,250.0546,-5.2904e-05,-1.13e-05,0.0,0 STARLINK-5164,1 54178U 22141X   24023.83134212 -.00001130  00000-0 -52904-4 0  9991,2 54178  53.2159 246.7522 0001217 110.0577 250.0546 15.08852083 68738,6917.843,95.437,540.55,538.867,0.0
54178.0,STARLINK-5164,PAYLOAD,2024-01-24 19:47:55,15.0883601,0.0001088,53.2154,242.3022,93.121,266.9906,9.3793e-06,-1.39e-06,0.0,0 STARLINK-5164,1 54178U 22141X   24024.82495306 -.00000139  00000-0  93793-5 0  9994,2 54178  53.2154 242.3022 0001088  93.1210 266.9906 15.08836010 68885,6917.893,95.438,540.51,539.005,0.0
54178.0,STARLINK-5164,PAYLOAD,2024-01-24 21:23:19,15.08835417,0.0001102,53.2155,242.0066,95.5625,264.5493,1.5199e-06,-2.64e-06,0.0,0 STARLINK-5164,1 54178U 22141X   24024.89119357 -.00000264  00000-0  15199-5 0  9993,2 54178  53.2155 242.0066 0001102  95.5625 264.5493 15.08835417 68890,6917.894,95.438,540.522,538.997,0.0
54178.0,STARLINK-5164,PAYLOAD,2024-01-25 19:38:43,15.08832297,0.0001157,53.2156,237.8428,94.3691,265.7433,1.5792e-05,-3.7e-07,0.0,0 STARLINK-5164,1 54178U 22141X   24025.81855852 -.00000037  00000-0  15792-4 0  9999,2 54178  53.2156 237.8428 0001157  94.3691 265.7433 15.08832297 69032,6917.904,95.438,540.569,538.969,0.0
54178.0,STARLINK-5164,PAYLOAD,2024-01-26 00:24:52,15.0883303,0.000115,53.2153,236.9477,88.8225,271.2898,1.9364e-05,2e-07,0.0,0 STARLINK-5164,1 54178U 22141X   24026.01727854  .00000020  00000-0  19364-4 0  9992,2 54178  53.2153 236.9477 0001150  88.8225 271.2898 15.08833030 69063,6917.902,95.438,540.562,538.971,0.0
